ORBCOMM FM37            
1 33064U 08031E   25116.56009245  .00003492  00000+0  48898-3 0  9991
2 33064  48.4389 229.0389 0005207 160.1305 296.2509 14.79576055906723
ORBCOMM FM40            
1 33065U 08031F   25116.02418698  .00004664  00000+0  61121-3 0  9995
2 33065  48.4407 216.4832 0006436 170.3743 359.5015 14.81765037906865
VESSELSAT 1             
1 37840U 11058C   25116.84115691  .00000469  00000+0  11105-3 0  9996
2 37840  19.9628  44.5764 0013542 342.2771  17.7160 14.11342651699273
ORBCOMM FM109           
1 40086U 14040A   25116.10933875  .00001453  00000+0  34923-3 0  9994
2 40086  47.0035 262.2337 0001191 122.2766 237.8235 14.58086157573585
ORBCOMM FM107           
1 40087U 14040B   25116.34587092  .00001484  00000+0  35537-3 0  9993
2 40087  47.0051 262.0998 0000638  13.8654 346.2248 14.58148814573613
ORBCOMM FM106           
1 40088U 14040C   25116.14701128  .00002418  00000+0  43606-3 0  9994
2 40088  47.0586  89.3003 0016729 188.0042 172.0584 14.69310541576035
ORBCOMM FM111           
1 40089U 14040D   25116.52109182  .00004258  00000+0  50182-3 0  9990
2 40089  47.0016 304.6197 0030828 303.5232  56.2721 14.86007500582548
ORBCOMM FM104           
1 40090U 14040E   25115.79730015  .00001200  00000+0  30417-3 0  9998
2 40090  47.0057 297.6708 0016603 323.7460  36.2299 14.56561771572983
